{"fetched_at":"2026-03-30T09:12:31Z","count":15922,"tles":[{"name":"STARLINK-36396","line1":"1 67494U 26012B   26087.80302110  .00025590  00000+0  93512-3 0  9992","line2":"2 67494  43.0002 206.5947 0001429 277.8989  82.1701 15.27618658 10683","category":"Starlink"}]}